ONEWEB-0685             
1 54679U 22166AP  25356.71952164  .00000018  00000+0  11483-4 0  9993
2 54679  87.9224 279.1880 0001915  87.2980 272.8374 13.21834739148108
ONEWEB-0712             
1 54680U 22166AQ  25356.82305514  .00000057  00000+0  11617-3 0  9999
2 54680  87.9052 263.8881 0002196  68.0175 292.1189 13.16596485148853
ONEWEB-0714             
1 54681U 22166AR  25356.72570473  .00000032  00000+0  45734-4 0  9998
2 54681  87.9226 279.1806 0001967  77.5545 282.5809 13.21825041148227
ONEWEB-0532             
1 55140U 23004A   25356.63363299  .00000031  00000+0  45771-4 0  9997
2 55140  87.9109  40.9641 0001839 115.4914 244.6408 13.17648314144332
ONEWEB-0533             
1 55141U 23004B   25356.81589045 -.00000256  00000+0 -74724-3 0  9997
2 55141  87.8930  25.6973 0001917  96.7687 263.3660 13.12444009144920
ONEWEB-0541             
1 55142U 23004C   25356.70786948  .00000422  00000+0  11561-2 0  9999
2 55142  87.8850  56.1902 0001692 103.0744 257.0573 13.11414227142816
ONEWEB-0543             
1 55143U 23004D   25356.44745772  .00000012  00000+0 -23026-5 0  9999
2 55143  87.9156  10.5924 0001975  85.2625 274.8733 13.18686850146402
ONEWEB-0544             
1 55144U 23004E   25356.44086194  .00000008  00000+0 -12742-4 0  9993
2 55144  87.9168  10.5847 0001614  84.8331 275.2985 13.18685183146401
